QIANFAN-81              
1 63167U 25046J   25293.16321323  .00000216  00000+0  31665-3 0  9994
2 63167  88.9787 325.4199 0012624 275.9277  84.0435 13.50988261 40257
QIANFAN-82              
1 63168U 25046K   25293.19643241  .00000188  00000+0  27272-3 0  9991
2 63168  88.9787 325.4601 0010793 285.3475  74.6483 13.50970437 40249
QIANFAN-83              
1 63169U 25046L   25293.14120302  .00000199  00000+0  24296-3 0  9990
2 63169  88.9787 325.3474 0012003 271.4663  88.5119 13.61964931 40309
QIANFAN-84              
1 63170U 25046M   25293.15065608  .00000138  00000+0  19461-3 0  9991
2 63170  88.9787 325.5978 0013742 280.9575  79.0030 13.50987388 40160
QIANFAN-85              
1 63171U 25046N   25293.14705103  .00000197  00000+0  28681-3 0  9991
2 63171  88.9786 325.4700 0011142 284.1602  75.8311 13.50973467 40238
QIANFAN-86              
1 63172U 25046P   25293.15530980  .00000204  00000+0  29703-3 0  9997
2 63172  88.9788 325.3300 0009047 289.7637  70.2538 13.50970433 40315
QIANFAN-87              
1 63173U 25046Q   25293.20053667  .00000167  00000+0  24035-3 0  9997
2 63173  88.9781 325.4391 0009669 283.4732  76.5342 13.50968541 40259
QIANFAN-88              
1 63174U 25046R   25293.14295959  .00000183  00000+0  26456-3 0  9990
2 63174  88.9787 325.3982 0010150 293.2390  66.7692 13.50969621 40278
